{"fetchedAt":"2026-06-29T18:07:57.270Z","satellites":[{"id":"41434","name":"BEIDOU-2 IGSO-6 (C13)","constellationId":"beidou","omm":{"OBJECT_NAME":"BEIDOU-2 IGSO-6 (C13)","OBJECT_ID":"2016-021A","EPOCH":"2026-06-26T02:38:38.671584","MEAN_MOTION":1.00258926,"ECCENTRICITY":0.0057558,"INCLINATION":60.2385,"RA_OF_ASC_NODE":37.9495,"ARG_OF_PERICENTER":231.0163,"MEAN_ANOMALY":137.2672,"EPHEMERIS_TYPE":0,"CLASSIFICATION_TYPE":"U","NORAD_CAT_ID":41434,"ELEMENT_SET_NO":999,"REV_AT_EPOCH":3757,"BSTAR":0,"MEAN_MOTION_DOT":-0.00000145,"MEAN_MOTION_DDOT":0}},{"id":"41586","name":"BEIDOU-2 G7 (C03)","constellationId":"beidou","omm":{"OBJECT_NAME":"BEIDOU-2 G7 (C03)","OBJECT_ID":"2016-037A","EPOCH":"2026-06-29T09:30:56.386080","MEAN_MOTION":1.00271246,"ECCENTRICITY":0.0006835,"INCLINATION":1.7497,"RA_OF_ASC_NODE":69.4211,"ARG_OF_PERICENTER":2.6211,"MEAN_ANOMALY":98.7279,"EPHEMERIS_TYPE":0,"CLASSIFICATION_TYPE":"U","NORAD_CAT_ID":41586,"ELEMENT_SET_NO":999,"REV_AT_EPOCH":701,"BSTAR":0,"MEAN_MOTION_DOT":-0.00000344,"MEAN_MOTION_DDOT":0}},{"id":"43001","name":"BEIDOU-3 M1 (C19)","constellationId":"beidou","omm":{"OBJECT_NAME":"BEIDOU-3 M1 (C19)","OBJECT_ID":"2017-069A","EPOCH":"2026-06-28T09:49:08.918400","MEAN_MOTION":1.86231517,"ECCENTRICITY":0.00098607,"INCLINATION":56.7017,"RA_OF_ASC_NODE":62.7147,"ARG_OF_PERICENTER":326.3987,"MEAN_ANOMALY":33.5922,"EPHEMERIS_TYPE":0,"CLASSIFICATION_TYPE":"U","NORAD_CAT_ID":43001,"ELEMENT_SET_NO":999,"REV_AT_EPOCH":5881,"BSTAR":0,"MEAN_MOTION_DOT":-6.6e-7,"MEAN_MOTION_DDOT":0}},{"id":"43002","name":"BEIDOU-3 M2 (C20)","constellationId":"beidou","omm":{"OBJECT_NAME":"BEIDOU-3 M2 (C20)","OBJECT_ID":"2017-069B","EPOCH":"2026-06-28T08:20:59.354016","MEAN_MOTION":1.86230801,"ECCENTRICITY":0.00088843,"INCLINATION":56.7014,"RA_OF_ASC_NODE":62.7523,"ARG_OF_PERICENTER":352.9823,"MEAN_ANOMALY":7.0583,"EPHEMERIS_TYPE":0,"CLASSIFICATION_TYPE":"U","NORAD_CAT_ID":43002,"ELEMENT_SET_NO":999,"REV_AT_EPOCH":5880,"BSTAR":0,"MEAN_MOTION_DOT":-6.6e-7,"MEAN_MOTION_DDOT":0}},{"id":"43107","name":"BEIDOU-3 M7 (C27)","constellationId":"beidou","omm":{"OBJECT_NAME":"BEIDOU-3 M7 (C27)","OBJECT_ID":"2018-003A","EPOCH":"2026-06-28T02:09:13.154112","MEAN_MOTION":1.86228313,"ECCENTRICITY":0.00049103,"INCLINATION":54.3171,"RA_OF_ASC_NODE":301.9342,"ARG_OF_PERICENTER":95.749,"MEAN_ANOMALY":264.305,"EPHEMERIS_TYPE":0,"CLASSIFICATION_TYPE":"U","NORAD_CAT_ID":43107,"ELEMENT_SET_NO":999,"REV_AT_EPOCH":5755,"BSTAR":0,"MEAN_MOTION_DOT":-8.9e-7,"MEAN_MOTION_DDOT":0}},{"id":"43108","name":"BEIDOU-3 M8 (C28)","constellationId":"beidou","omm":{"OBJECT_NAME":"BEIDOU-3 M8 (C28)","OBJECT_ID":"2018-003B","EPOCH":"2026-06-29T02:35:52.172736","MEAN_MOTION":1.86231229,"ECCENTRICITY":0.000275,"INCLINATION":54.309,"RA_OF_ASC_NODE":301.8814,"ARG_OF_PERICENTER":259.292,"MEAN_ANOMALY":100.6793,"EPHEMERIS_TYPE":0,"CLASSIFICATION_TYPE":"U","NORAD_CAT_ID":43108,"ELEMENT_SET_NO":999,"REV_AT_EPOCH":5758,"BSTAR":0,"MEAN_MOTION_DOT":-8.1e-7,"MEAN_MOTION_DDOT":0}},{"id":"43207","name":"BEIDOU-3 M4 (C22)","constellationId":"beidou","omm":{"OBJECT_NAME":"BEIDOU-3 M4 (C22)","OBJECT_ID":"2018-018A","EPOCH":"2026-06-29T00:20:42.438912","MEAN_MOTION":1.86231549,"ECCENTRICITY":0.0007427,"INCLINATION":56.6611,"RA_OF_ASC_NODE":62.7586,"ARG_OF_PERICENTER":23.7598,"MEAN_ANOMALY":336.331,"EPHEMERIS_TYPE":0,"CLASSIFICATION_TYPE":"U","NORAD_CAT_ID":43207,"ELEMENT_SET_NO":999,"REV_AT_EPOCH":5696,"BSTAR":0,"MEAN_MOTION_DOT":-6e-7,"MEAN_MOTION_DDOT":0}},{"id":"43208","name":"BEIDOU-3 M3 (C21)","constellationId":"beidou","omm":{"OBJECT_NAME":"BEIDOU-3 M3 (C21)","OBJECT_ID":"2018-018B","EPOCH":"2026-06-29T01:56:26.771424","MEAN_MOTION":1.86231367,"ECCENTRICITY":0.0008125,"INCLINATION":56.6611,"RA_OF_ASC_NODE":62.7601,"ARG_OF_PERICENTER":342.8651,"MEAN_ANOMALY":17.1644,"EPHEMERIS_TYPE":0,"CLASSIFICATION_TYPE":"U","NORAD_CAT_ID":43208,"ELEMENT_SET_NO":999,"REV_AT_EPOCH":5696,"BSTAR":0,"MEAN_MOTION_DOT":-5.9e-7,"MEAN_MOTION_DDOT":0}},{"id":"43245","name":"BEIDOU-3 M9 (C29)","constellationId":"beidou","omm":{"OBJECT_NAME":"BEIDOU-3 M9 (C29)","OBJECT_ID":"2018-029A","EPOCH":"2026-06-27T16:30:31.112640","MEAN_MOTION":1.86228615,"ECCENTRICITY":0.00009375,"INCLINATION":54.1834,"RA_OF_ASC_NODE":299.5811,"ARG_OF_PERICENTER":166.7829,"MEAN_ANOMALY":193.2191,"EPHEMERIS_TYPE":0,"CLASSIFICATION_TYPE":"U","NORAD_CAT_ID":43245,"ELEMENT_SET_NO":999,"REV_AT_EPOCH":5609,"BSTAR":0,"MEAN_MOTION_DOT":-9e-7,"MEAN_MOTION_DDOT":0}},{"id":"43246","name":"BEIDOU-3 M10 (C30)","constellationId":"beidou","omm":{"OBJECT_NAME":"BEIDOU-3 M10 (C30)","OBJECT_ID":"2018-029B","EPOCH":"2026-06-28T03:49:08.332608","MEAN_MOTION":1.8622948,"ECCENTRICITY":0.00036217,"INCLINATION":54.1804,"RA_OF_ASC_NODE":299.5911,"ARG_OF_PERICENTER":39.5768,"MEAN_ANOMALY":320.4508,"EPHEMERIS_TYPE":0,"CLASSIFICATION_TYPE":"U","NORAD_CAT_ID":43246,"ELEMENT_SET_NO":999,"REV_AT_EPOCH":5608,"BSTAR":0,"MEAN_MOTION_DOT":-8.6e-7,"MEAN_MOTION_DDOT":0}},{"id":"43539","name":"BEIDOU-2 IGSO-7 (C16)","constellationId":"beidou","omm":{"OBJECT_NAME":"BEIDOU-2 IGSO-7 (C16)","OBJECT_ID":"2018-057A","EPOCH":"2026-06-26T12:08:29.940576","MEAN_MOTION":1.00249004,"ECCENTRICITY":0.0104768,"INCLINATION":55.197,"RA_OF_ASC_NODE":162.9757,"ARG_OF_PERICENTER":237.979,"MEAN_ANOMALY":164.9478,"EPHEMERIS_TYPE":0,"CLASSIFICATION_TYPE":"U","NORAD_CAT_ID":43539,"ELEMENT_SET_NO":999,"REV_AT_EPOCH":2922,"BSTAR":0,"MEAN_MOTION_DOT":-2.8e-7,"MEAN_MOTION_DDOT":0}},{"id":"43581","name":"BEIDOU-3 M5 (C23)","constellationId":"beidou","omm":{"OBJECT_NAME":"BEIDOU-3 M5 (C23)","OBJECT_ID":"2018-062A","EPOCH":"2026-06-27T20:18:31.178016","MEAN_MOTION":1.86228745,"ECCENTRICITY":0.00057682,"INCLINATION":54.086,"RA_OF_ASC_NODE":181.9416,"ARG_OF_PERICENTER":291.0967,"MEAN_ANOMALY":68.866,"EPHEMERIS_TYPE":0,"CLASSIFICATION_TYPE":"U","NORAD_CAT_ID":43581,"ELEMENT_SET_NO":999,"REV_AT_EPOCH":5383,"BSTAR":0,"MEAN_MOTION_DOT":8.3e-7,"MEAN_MOTION_DDOT":0}},{"id":"43582","name":"BEIDOU-3 M6 (C24)","constellationId":"beidou","omm":{"OBJECT_NAME":"BEIDOU-3 M6 (C24)","OBJECT_ID":"2018-062B","EPOCH":"2026-06-27T17:01:59.570400","MEAN_MOTION":1.86227843,"ECCENTRICITY":0.00051051,"INCLINATION":54.086,"RA_OF_ASC_NODE":181.9355,"ARG_OF_PERICENTER":8.8787,"MEAN_ANOMALY":351.1552,"EPHEMERIS_TYPE":0,"CLASSIFICATION_TYPE":"U","NORAD_CAT_ID":43582,"ELEMENT_SET_NO":999,"REV_AT_EPOCH":5383,"BSTAR":0,"MEAN_MOTION_DOT":8.5e-7,"MEAN_MOTION_DDOT":0}},{"id":"43602","name":"BEIDOU-3 M12 (C26)","constellationId":"beidou","omm":{"OBJECT_NAME":"BEIDOU-3 M12 (C26)","OBJECT_ID":"2018-067A","EPOCH":"2026-06-26T00:53:39.683040","MEAN_MOTION":1.86227758,"ECCENTRICITY":0.0007828,"INCLINATION":54.181,"RA_OF_ASC_NODE":180.7397,"ARG_OF_PERICENTER":29.5974,"MEAN_ANOMALY":330.4748,"EPHEMERIS_TYPE":0,"CLASSIFICATION_TYPE":"U","NORAD_CAT_ID":43602,"ELEMENT_SET_NO":999,"REV_AT_EPOCH":5328,"BSTAR":0,"MEAN_MOTION_DOT":9.8e-7,"MEAN_MOTION_DDOT":0}},{"id":"43603","name":"BEIDOU-3 M11 (C25)","constellationId":"beidou","omm":{"OBJECT_NAME":"BEIDOU-3 M11 (C25)","OBJECT_ID":"2018-067B","EPOCH":"2026-06-28T07:41:03.689376","MEAN_MOTION":1.8622725,"ECCENTRICITY":0.00045873,"INCLINATION":54.1783,"RA_OF_ASC_NODE":180.626,"ARG_OF_PERICENTER":12.7295,"MEAN_ANOMALY":347.3012,"EPHEMERIS_TYPE":0,"CLASSIFICATION_TYPE":"U","NORAD_CAT_ID":43603,"ELEMENT_SET_NO":999,"REV_AT_EPOCH":5335,"BSTAR":0,"MEAN_MOTION_DOT":7.8e-7,"MEAN_MOTION_DDOT":0}}]}